Id,StarbucksId,Name,BrandName,StoreNumber,PhoneNumber,OwnershipType,Street1,Street2,Street3,City,CountrySubdivisionCode,CountryCode,PostalCode,Longitude,Latitude,TimezoneOffset,TimezoneId,TimezoneOlsonId,FirstSeen,LastSeen
1d14dd7c-1afb-452b-9322-59ec5b4460af,13780,Galloway,Starbucks,8838-94558,609-748-4962,CO,405 S. Pitney Road,,Galloway Village Square Shopping Center,Absecon,NJ,US,82059710,-74.49,39.46,-300,Eastern Standard Time,GMT-05:00 America/New_York,12/8/2013 17:41,2/3/2017 0:00
7132a578-140e-4fdf-b1a5-825f5cafb7d1,6820,Acme - Allendale #1095,Starbucks,73856-93632,201-934-9164,LS,45 Demercurio Dr,,,Allendale,NJ,US,74011711,-74.13,41.03,-300,Eastern Standard Time,GMT-05:00 America/New_York,12/8/2013 17:41,2/3/2017 0:00
f2c4ceef-134b-4d56-8cf4-08e1d25dd4e3,13023,Tropicana Marketplace,Starbucks,75621-82681,609-345-1313,LS,2831 Boardwalk,,,Atlantic City,NJ,US,84016338,-74.45,39.35,-300,Eastern Standard Time,GMT-05:00 America/New_York,12/8/2013 17:41,2/3/2017 0:00
3830478f-f10f-4c0d-b5b6-571f4d004398,9365,"Atlantic City, The Walk",Starbucks,7849-80862,609-344-0413,CO,120 North Michigan Avenue,,,Atlantic City,NJ,US,84014119,-74.44,39.36,-300,Eastern Standard Time,GMT-05:00 America/New_York,12/8/2013 17:41,2/3/2017 0:00
6f1c23f0-70d7-49a4-b7d2-6926623783ee,19096,Tropicana Casino & Resort-The Quart,Starbucks,14932-150984,609-350-6104,LS,2831 Boardwalk,,,Atlantic City,NJ,US,84016390,-74.44,39.35,-300,Eastern Standard Time,GMT-05:00 America/New_York,12/8/2013 17:41,2/3/2017 0:00
87744b14-6b18-48f1-8f1c-6c1161289b90,18167,Trump Taj Mahal-Atlantic City-Main,Starbucks,75451-102575,609-345-4045,LS,1000 Boardwalk at Virginia Ave,,,Atlantic City,NJ,US,84017415,-74.42,39.36,-300,Eastern Standard Time,GMT-05:00 America/New_York,12/8/2013 17:41,2/3/2017 0:00
329f304f-3222-4354-85e1-da527976647f,88966,Golden Nugget-Atlantic City,Starbucks,17549-173804,949-643-0337,LS,1 Castle Blvd,,,Atlantic City,NJ,US,8401,-74.43,39.38,-300,Eastern Standard Time,GMT-05:00 America/New_York,12/8/2013 17:41,2/3/2017 0:00
3f1f7dff-0631-43c9-a575-7373a1dd5020,1015682,Acme - Barnegat #7921,Starbucks,47680-258706,609-607-5909,LS,912 W Bay Ave,,,Barnegat,NJ,US,8005,-74.25,39.76,-300,Eastern Standard Time,GMT-05:00 America/New_York,8/30/2016 0:00,2/3/2017 0:00
c83cd765-3db7-4717-b70f-295977c0abb3,11233,Bernards-Riverwalk,Starbucks,7669-32160,908-626-1945,CO,655 Martinsville Road,,,Basking  Ridge,NJ,US,79202703,-74.58,40.65,-300,Eastern Standard Time,GMT-05:00 America/New_York,12/8/2013 17:41,2/3/2017 0:00
ae0d542c-4de3-4737-a5b5-0c9737c04999,7489,Stop & Shop - Bayonne #853,Starbucks,73780-111885,,LS,1 Lefante Way,,,Bayonne,NJ,US,70025070,-74.11,40.67,-300,Eastern Standard Time,GMT-05:00 America/New_York,12/8/2013 17:41,2/3/2017 0:00
2e07c347-134b-47b1-bd2f-f60ea38926dd,18054,Village at Bedminster,Starbucks,13295-104959,908-719-1259,CO,432 US Highway 202/206,,Village at Bedminster,Bedminster,NJ,US,79211514,-74.64,40.65,-300,Eastern Standard Time,GMT-05:00 America/New_York,12/8/2013 17:41,2/3/2017 0:00
46fd42a8-c0fe-48bf-a438-d9e210cc1f5a,1009334,NJ Monmouth Travel Plaza,Starbucks,23709-231486,732-681-4314,LS,"Garden State Pkwy, Mile Marker 100",,,Bellmar,NJ,US,7719,-74.27,40.02,-300,Eastern Standard Time,GMT-05:00 America/New_York,12/31/2014 0:00,2/3/2017 0:00
66f67e3e-a7c6-4b5c-987e-0447709b2b53,1006278,Paramus Park Mall Center Court,Starbucks,21770-213785,2012616318,CO,700 Paramus Park,,,Bergen,NJ,US,7652,-74.07,40.96,-300,Eastern Standard Time,GMT-05:00 America/New_York,12/8/2013 17:41,2/3/2017 0:00
94e60425-a09f-496f-a339-71343a8a8ec9,18360,Bernardsville Center,Starbucks,13296-106186,908-204-8973,CO,80 Morristown Rd.,Unit 10,,Bernardsville,NJ,US,79242313,-74.56,40.72,-300,Eastern Standard Time,GMT-05:00 America/New_York,12/8/2013 17:41,2/3/2017 0:00
a5dcea82-5b76-4ab5-956e-93bf9f4ec4e6,1016493,Acme - Boonton #1582,Starbucks,48652-263848,,LS,550 Myrtle Avenue,,,Boonton,NJ,US,7005,-74.4,40.91,-300,Eastern Standard Time,GMT-05:00 America/New_York,1/11/2017 0:00,2/3/2017 0:00
4852dcb0-1905-41f5-95b4-822572d63d8d,17431,Bordentown,Starbucks,10782-101614,609-324-0124,CO,282 Dunns Mill Road,,ACME Commons at Bordentown,Bordentown,NJ,US,85054748,-74.72,40.13,-300,Eastern Standard Time,GMT-05:00 America/New_York,12/8/2013 17:41,2/3/2017 0:00
b1b8f4c6-98ba-4a7e-af4b-ef796ae04b41,8346,Branchburg,Starbucks,9480-96107,908-575-0268,CO,240 Raritan Valley College Drive,,Shoppes at Branchburg,Branchburg,NJ,US,88763333,-74.69,40.61,-300,Eastern Standard Time,GMT-05:00 America/New_York,12/8/2013 17:41,2/3/2017 0:00
e373247e-0a9f-439d-a8be-a740edace4fc,6469,Target Brick T-1153,Starbucks,76752-108096,732-262-0600,LS,570 Rte. 70 West,,,Brick,NJ,US,87234014,-74.15,40.06,-300,Eastern Standard Time,GMT-05:00 America/New_York,12/8/2013 17:41,2/3/2017 0:00
5ec1e095-ef38-41a4-a530-97deed4d61b7,17732,The Village at Bridgewater Commons,Starbucks,11271-104196,9084291381,CO,610 Commons Way 4300,,The Village at Bridgewater Commons,Bridgewater,NJ,US,88072845,-74.61,40.58,-300,Eastern Standard Time,GMT-05:00 America/New_York,12/8/2013 17:41,2/3/2017 0:00
664287fa-c19f-44c0-a1fb-a50e83ad3cd2,10992,Bridgewater Mall-Level 1 Side,Starbucks,7392-139851,(908) 722-4911,CO,400 Commons Way,2475,Bridgewater Commons,Bridgewater,NJ,US,88072800,-74.62,40.59,-300,Eastern Standard Time,GMT-05:00 America/New_York,12/8/2013 17:41,2/3/2017 0:00
d1027745-c409-43f0-b072-e7f1f8ae45ed,1011094,Target Bridgewater T-1224,Starbucks,24888-237588,732-868-8333,LS,200 Promenade Blvd,,,Bridgewater,NJ,US,8807,-74.56,40.56,-300,Eastern Standard Time,GMT-05:00 America/New_York,11/25/2014 0:00,2/3/2017 0:00
5d0d9ada-93c8-48c4-a376-9b256fd6b9e4,1005919,Target Burlington T-1158,Starbucks,20878-208265,609-239-9885,LS,2703 Route 541,,,Burlington,NJ,US,8016,-74.82,40.04,-300,Eastern Standard Time,GMT-05:00 America/New_York,12/8/2013 17:41,2/3/2017 0:00
98a6e73b-2a22-4e4a-89be-6c4fabd1de26,11289,Rutgers U/Camden-Student Union,Starbucks,75161-75060,856-225-6015,LS,326 Penn St,,,Camden,NJ,US,81021410,-75.12,39.95,-300,Eastern Standard Time,GMT-05:00 America/New_York,12/8/2013 17:41,2/3/2017 0:00
452dac84-b8b5-4f33-8339-4cd63777f25d,1014757,Cedar Knolls Hanover,Starbucks,27065-246611,8627775857,CO,178 Hanover Avenue,101,,Cedar Knolls,NJ,US,7927,-74.47,40.81,-300,Eastern Standard Time,GMT-05:00 America/New_York,5/7/2016 0:00,2/3/2017 0:00
61012ac5-6dd5-4293-81e1-17342212e7b4,1005610,Chatham,Starbucks,20167-203744,9733775979,CO,640 Shunpike Rd.,,,Chatham,NJ,US,7928,-74.43,40.75,-300,Eastern Standard Time,GMT-05:00 America/New_York,12/8/2013 17:41,2/3/2017 0:00
ecaf94fe-510b-42f6-b4bd-076215b9bd8e,113437,NJ Walt Whitman Travel Plaza,Starbucks,17223-176968,856-429-9323,LS,NJPK MM 32.3,,,Cherry Hill,NJ,US,8034,-75,39.89,-300,Eastern Standard Time,GMT-05:00 America/New_York,12/8/2013 17:41,2/3/2017 0:00
b885205c-2ddb-4c9b-bd2d-0db1161834b0,11847,"Rt. 70 West, Cherry Hill",Starbucks,7620-19720,856-427-4333,CO,1192 East Rt. 70,#12,Kinko's Plaza,Cherry Hill,NJ,US,8034,-75,39.91,-300,Eastern Standard Time,GMT-05:00 America/New_York,12/8/2013 17:41,2/3/2017 0:00
a6d5e19a-56ce-4552-b45b-25950b4feec2,7531,Garden State Park,Starbucks,11762-99112,856-486-1058,CO,2026 Route 70 West,Suite A,Garden State Park,Cherry Hill,NJ,US,8002,-75.04,39.92,-300,Eastern Standard Time,GMT-05:00 America/New_York,12/8/2013 17:41,2/3/2017 0:00
d8eb5e71-3679-47a5-8569-453828a73b48,10827,Target Cherry Hill T-1085,Starbucks,76948-129486,856-317-1445,LS,2137 SR-38,,,Cherry Hill,NJ,US,8002,-75.03,39.93,-300,Eastern Standard Time,GMT-05:00 America/New_York,12/8/2013 17:41,2/3/2017 0:00
3112e5ff-d532-4edb-a940-6062e4fdca13,13382,Macy's - Cherry Hill Mall,Starbucks,7787-64101,856-665-7932,CO,2000 Route 38,,,Cherry Hill,NJ,US,80022100,-75.02,39.94,-300,Eastern Standard Time,GMT-05:00 America/New_York,12/8/2013 17:41,2/3/2017 0:00
e4e20c1b-424d-4eee-963d-a31751d2cc76,1006903,600 Route 38 Cherry Hill,Starbucks,23126-227986,6095193953,CO,600 Rt 38,,,Cherry Hill,NJ,US,8002,-75.05,39.94,-300,Eastern Standard Time,GMT-05:00 America/New_York,1/9/2016 0:00,2/3/2017 0:00
e34041a0-6cd9-4051-b184-cbe36b1d789b,13502,480 Evesham Road,Starbucks,7371-811,(856) 427-0268,CO,480 Evesham Road,,Short Hills Towne Centre,Cherry Hill,NJ,US,80033368,-74.97,39.86,-300,Eastern Standard Time,GMT-05:00 America/New_York,12/8/2013 17:41,2/3/2017 0:00
eeedb692-d058-48b5-a8bb-ffa10cab2930,12862,Chapel & Haddonfield,Starbucks,7895-81093,856-488-6020,CO,512 Haddonfield Road,,,Cherry Hill,NJ,US,80022600,-75.03,39.93,-300,Eastern Standard Time,GMT-05:00 America/New_York,12/8/2013 17:41,2/3/2017 0:00
8bf95de8-f73d-4a53-9532-98733cc87225,18361,Chester Springs Shopping Center,Starbucks,11642-105545,908-879-4548,CO,537 Route 206 South,,Chester Springs Shopping Center,Chester,NJ,US,7930,-74.69,40.78,-300,Eastern Standard Time,GMT-05:00 America/New_York,12/8/2013 17:41,2/3/2017 0:00
c83cd104-db0b-4e43-90a1-a3e851cdb3c4,89855,Target Clark T-1467,Starbucks,15210-155731,732-882-0736,LS,45 Central Ave,,,Clark,NJ,US,70661421,-74.31,40.63,-300,Eastern Standard Time,GMT-05:00 America/New_York,12/8/2013 17:41,2/3/2017 0:00
59023c0f-50bb-450e-b3d3-560caa8af30d,6938,1490 Blackwood-Clementon Road,Starbucks,11272-102276,856 784-1789,CO,1490 Blackwood-Clementon Rd.,Gloucester Township,Cherrywood Plaza,Clementon,NJ,US,80215701,-75.04,39.8,-300,Eastern Standard Time,GMT-05:00 America/New_York,12/8/2013 17:41,2/3/2017 0:00
956e1a26-0c8d-4034-b3a8-677989c5fce4,17773,Clifton Route 3,Starbucks,9659-97879,973 473-2560,CO,360 Rt 3,,,Clifton,NJ,US,7014,-74.14,40.83,-300,Eastern Standard Time,GMT-05:00 America/New_York,12/8/2013 17:41,2/3/2017 0:00
ba413846-8a34-4212-beb5-c5059129f902,7631,Stop & Shop-Clifton #813,Starbucks,73964-96543,973-779-6697,LS,160 Kingsland Rd,,,Clifton,NJ,US,70141915,-74.14,40.83,-300,Eastern Standard Time,GMT-05:00 America/New_York,12/8/2013 17:41,2/3/2017 0:00
6ba6b947-5703-4c08-9860-89a91fa3ee96,8954,Closter,Starbucks,7582-18664,201-750-3555,CO,234 Closter Dock Road,,Heidenberg Plaza,Closter,NJ,US,76242634,-73.96,40.97,-300,Eastern Standard Time,GMT-05:00 America/New_York,12/8/2013 17:41,2/3/2017 0:00
569d22c9-8526-49f7-b5e4-bc9b0ec1f1d9,1016353,Target Closter T-3235,Starbucks,47895-259427,201-367-1405,LS,6 Vervalan St,,,CLOSTER,NJ,US,7624,-73.96,40.97,-300,Eastern Standard Time,GMT-05:00 America/New_York,11/8/2016 0:00,2/3/2017 0:00
e322f878-ffc4-40a0-a32d-54bc7bd9ff8e,1013917,NJ TP - Molly Pitcher Mobile Truck,Starbucks,29821-251648,609-655-4330,LS,New Jersey Turnpike,,,Cranbury,NJ,US,8512,-74.49,40.32,-300,Eastern Standard Time,GMT-05:00 America/New_York,12/8/2015 0:00,2/3/2017 0:00
e58c82d3-720d-4de3-b5ac-6143d10e39a5,16250,Molly Pitcher Adj Snackbar,Starbucks,75692-94408,609-655-4330,LS,MM-71.7 S New Jersey Tpke,,,Cranbury,NJ,US,8512,-74.49,40.32,-300,Eastern Standard Time,GMT-05:00 America/New_York,12/8/2013 17:41,2/3/2017 0:00
5b69756a-ede7-4f06-ba23-def1f0f0d03a,17914,Stop & Shop-Monroe Township #810,Starbucks,79487-101833,609-655-8900,LS,1600 Perrineville Road,,,Cranbury,NJ,US,8512,-74.44,40.32,-300,Eastern Standard Time,GMT-05:00 America/New_York,12/8/2013 17:41,2/3/2017 0:00
f4c031d5-d320-4e41-928a-6f1b3cc468d7,1008821,Cranford N Ave E - Drive Thru Only,Starbucks,20466-205025,908-272-7397,CO,345 N Ave E,,,Cranford,NJ,US,7016,-74.29,40.66,-300,Eastern Standard Time,GMT-05:00 America/New_York,5/20/2015 0:00,2/3/2017 0:00
a8f657a1-7d86-48fa-b02c-fb77791f2c39,1006676,Cranford Train Station,Starbucks,21510-212987,908-272-3967,CO,200 South Ave.,Suite 101,,Cranford,NJ,US,7016,-74.3,40.65,-300,Eastern Standard Time,GMT-05:00 America/New_York,3/19/2014 0:00,2/3/2017 0:00
560a5fce-5b4c-4aa2-8619-39f0940bae7a,7783,Delran,Starbucks,10039-99378,856-764-0375,CO,1340 Fairview Boulevard,,Hartford Corners,Delran,NJ,US,80751446,-74.94,40.02,-300,Eastern Standard Time,GMT-05:00 America/New_York,12/8/2013 17:41,2/3/2017 0:00
22f28486-2ffb-4711-9ac0-d02dad3cccde,12861,Route 10 Denville,Starbucks,7880-81643,973-442-4123,CO,3056 Route 10 West,,,Denville,NJ,US,78343486,-74.51,40.87,-300,Eastern Standard Time,GMT-05:00 America/New_York,12/8/2013 17:41,2/3/2017 0:00
f0fc140f-2111-407e-a237-d68f4bdbdd5f,11034,Denville Plaza,Starbucks,13926-111184,973-627-0791,CO,2-28 West Main Street,,Denville Plaza,Denville,NJ,US,7834,-74.48,40.89,-300,Eastern Standard Time,GMT-05:00 America/New_York,12/8/2013 17:41,2/3/2017 0:00
33148984-68e4-43d6-88c6-8a3fbeaf4955,1005370,Deptford Mall,Starbucks,20460-205804,8566866002,CO,1750 Deptford Center Road,KI08,,Deptford,NJ,US,8096,-75.1,39.83,-300,Eastern Standard Time,GMT-05:00 America/New_York,12/8/2013 17:41,2/3/2017 0:00
8c8b14a2-19c6-4338-b92f-c061057fde84,10234,"Route 18 & Tices, East Brunswick",Starbucks,9958-97328,732-432-4809,CO,300 Route 18 North,,,East Brunswick,NJ,US,88161912,-74.4,40.46,-300,Eastern Standard Time,GMT-05:00 America/New_York,12/8/2013 17:41,2/3/2017 0:00
ff019d79-0809-47d3-b18b-28c2aac46aa2,1014847,Target East Hanover T-1491,Starbucks,29956-255467,973-887-3145,LS,130 State Rte 10,,,East Hanover,NJ,US,7936,-74.38,40.81,-300,Eastern Standard Time,GMT-05:00 America/New_York,6/7/2016 0:00,2/3/2017 0:00
6cecc98c-7060-4b88-9d80-89a435b0622f,16794,East Hanover - Rt 10,Starbucks,7475-6848,973-599-0100,CO,405 Route 10 East,,,East Hanover,NJ,US,79363532,-74.36,40.8,-300,Eastern Standard Time,GMT-05:00 America/New_York,12/8/2013 17:41,2/3/2017 0:00
578a11a0-a105-47ee-baee-39a87384ec52,113723,NJ TP Vince Lombardi Travel Plaza,Starbucks,17120-129244,201-943-1171,LS,NJTP MM 116,,,East Ridgefield,NJ,US,7657,-74,40.83,-300,Eastern Standard Time,GMT-05:00 America/New_York,12/8/2013 17:41,2/3/2017 0:00
a52d7119-a0a3-4884-a924-27d97bb4ed18,17525,Hilton Meadowlands,Starbucks,75896-101808,(201) 507-2802,LS,2 Meadowlands Plaza,,,East Rutherford,NJ,US,70732137,-74.08,40.81,-300,Eastern Standard Time,GMT-05:00 America/New_York,12/8/2013 17:41,2/3/2017 0:00
dec661b2-7c76-4162-bce2-c12b2202a204,17428,"East Rutherford, Rt. 17",Starbucks,10392-100740,201-438-0584,CO,10 State Route 17,,,East Rutherford,NJ,US,70732105,-74.09,40.83,-300,Eastern Standard Time,GMT-05:00 America/New_York,12/8/2013 17:41,2/3/2017 0:00
9f3fd701-6a5f-4dce-928f-604199fb3d5a,1005878,Eatontown,Starbucks,20164-203764,7325422015,CO,178 Route 35,,,Eatontown,NJ,US,7724,-74.05,40.29,-300,Eastern Standard Time,GMT-05:00 America/New_York,12/8/2013 17:41,2/3/2017 0:00
f17032de-2b0c-4855-89a8-181f840cf40e,11601,Edgewater,Starbucks,7223-561,(201) 945-5343,CO,457 River Road,,Edgewater Commons,Edgewater,NJ,US,70201145,-73.98,40.81,-300,Eastern Standard Time,GMT-05:00 America/New_York,12/8/2013 17:41,2/3/2017 0:00
2bb98500-63b2-4bcf-b2df-bbdb7ade97be,1005922,Target Edgewater T-1263,Starbucks,20965-208925,201-402-0252,LS,543 River Rd,,,Edgewater,NJ,US,7020,-73.98,40.81,-300,Eastern Standard Time,GMT-05:00 America/New_York,12/8/2013 17:41,2/3/2017 0:00
a4c5b886-2093-43bf-9d5c-0e56565f439e,15290,Edison,Starbucks,7767-66040,732-549-1092,CO,1-11 Lincoln Highway,,Colonial Village,Edison,NJ,US,88373218,-74.35,40.56,-300,Eastern Standard Time,GMT-05:00 America/New_York,12/8/2013 17:41,2/3/2017 0:00
8afcd673-b580-4903-bcab-24529205016f,1011093,Target Edison T-1055,Starbucks,24887-237459,732-744-1100,LS,100 Parsonage Rd,,,Edison,NJ,US,8837,-74.34,40.55,-300,Eastern Standard Time,GMT-05:00 America/New_York,12/12/2014 0:00,2/3/2017 0:00
6b61b152-cb20-4dc5-9266-8026965eb2ac,18634,Sheraton Edison,Starbucks,70040-135824,,LS,125 Raritan Center Pkwy,,,Edison,NJ,US,88373614,-74.34,40.52,-300,Eastern Standard Time,GMT-05:00 America/New_York,12/8/2013 17:41,2/3/2017 0:00
94d933ba-f85d-44e3-ab9d-b23033b4d4b7,1005251,Macy's-Menlo Park #8,Starbucks,18033-166705,732-549-4400,LS,275 Menlo Park Mall,,,Edison,NJ,US,88375402,-74.33,40.54,-300,Eastern Standard Time,GMT-05:00 America/New_York,12/8/2013 17:41,2/3/2017 0:00
6df4e228-7460-4c9d-b531-e5fe0710bac1,12444,Menlo Park Mall,Starbucks,7721-44905,732-635-1083,CO,100 Menol Park Dr.,,Menlo Park Mall,Edison,NJ,US,88372428,-74.34,40.55,-300,Eastern Standard Time,GMT-05:00 America/New_York,12/8/2013 17:41,2/3/2017 0:00
ea68e3bf-9e02-415d-a015-6d8f211bbf2d,6375,Jersey Gardens Mall,Starbucks,14295-107071,908 965-2102,CO,651 Kapkowski Road,1456,Jersey Gardens,Elizabeth,NJ,US,72014901,-74.17,40.66,-300,Eastern Standard Time,GMT-05:00 America/New_York,12/8/2013 17:41,2/3/2017 0:00
9987bbb4-466a-4ed5-b80f-0c57f85fcdfd,11691,Englewood,Starbucks,846-2045,201-871-3212,CO,17 E. Palisades Avenue,,,Englewood,NJ,US,76312901,-73.97,40.89,-300,Eastern Standard Time,GMT-05:00 America/New_York,12/8/2013 17:41,2/3/2017 0:00
7dfc8dca-7e4d-4b4c-94eb-105edd4d4ee8,13524,Marlton,Starbucks,7488-2885,856-810-9920,CO,300 State Route 73,Space A,,Evesham,NJ,US,8053,-74.93,39.89,-300,Eastern Standard Time,GMT-05:00 America/New_York,12/8/2013 17:41,2/3/2017 0:00
c795e9fe-7b1a-4fd1-84a4-987e88a10a2d,1011103,Target - Fairfield T-1175,Starbucks,25228-237517,973-396-0069,LS,632 US Highway 46,,,Fairfield,NJ,US,7004,-74.27,40.89,-300,Eastern Standard Time,GMT-05:00 America/New_York,11/11/2014 0:00,2/3/2017 0:00
bcb33904-274e-4e37-9ac6-43a60e18318d,1006683,Fair Lawn Promanade,Starbucks,21655-213985,2017911340,CO,16-31 state route 208,,,Fairlawn,NJ,US,7410,-74.13,40.94,-300,Eastern Standard Time,GMT-05:00 America/New_York,5/3/2014 0:00,2/3/2017 0:00
60c12b00-fe22-4e37-8355-abf41494e388,1007196,240 Route 202 - Flemington,Starbucks,23176-226585,9083001511,CO,240 Route 202,,,Flemington,NJ,US,8822,-74.86,40.49,-300,Eastern Standard Time,GMT-05:00 America/New_York,11/26/2015 0:00,2/3/2017 0:00
d68af729-0efb-4d2a-8088-bd48c3195a2a,11693,Florham Park,Starbucks,859-558,973-443-0484,CO,184 Columbia Turnpike,,,Florham Park,NJ,US,79321314,-74.39,40.79,-300,Eastern Standard Time,GMT-05:00 America/New_York,12/8/2013 17:41,2/3/2017 0:00
6c5dc4d7-9da7-4217-9aba-a50e005a441b,16809,Forked River Travel Plaza-Gdn St. P,Starbucks,72423-6826,609-693-8275,LS,Garden State Parkway,Mile Marker 74.5,,Forked River,NJ,US,8731,-74.21,39.87,-300,Eastern Standard Time,GMT-05:00 America/New_York,12/8/2013 17:41,2/3/2017 0:00
84ba95cc-a03d-46b3-b209-3e78cb88bfa0,6819,Acme - Fort Lee #1065,Starbucks,73855-93630,201-346-1188,LS,2160 Lemoine Ave,,,Fort Lee,NJ,US,70246002,-73.97,40.86,-300,Eastern Standard Time,GMT-05:00 America/New_York,12/8/2013 17:41,2/3/2017 0:00
e1ae3592-9f77-4db9-9c79-44abee12239e,16815,Lemoine Ave.,Starbucks,7471-5986,201 4617229,CO,1605 Lemoine Ave.,,Whitman Plaza,Fort Lee,NJ,US,70245639,-73.97,40.85,-300,Eastern Standard Time,GMT-05:00 America/New_York,12/8/2013 17:41,2/3/2017 0:00
356e65d1-69fb-45b1-8915-70209c65098c,10927,"Fort Lee, Route 4 E",Starbucks,14296-114267,2015920765,CO,2215 SR-4 East,,,Fort Lee,NJ,US,7024,-73.97,40.86,-300,Eastern Standard Time,GMT-05:00 America/New_York,12/8/2013 17:41,2/3/2017 0:00
164290b6-8dc1-4a6d-9989-e5461abd2030,1008836,"Fort Lee, Bergen Blvd.",Starbucks,21773-214845,,CO,1616 Bergen Blvd.,,,Fort Lee,NJ,US,7024,-73.98,40.86,-300,Eastern Standard Time,GMT-05:00 America/New_York,1/26/2017 0:00,2/3/2017 0:00
5c9af716-2c12-479d-9e10-e58d4126e4ba,13479,Fort Lee - Linwood Plaza,Starbucks,7256-882,(201) 947-1112,CO,136-38 Linwood Plaza,,Linwood Plaza Shopping Center,Fort Lee,NJ,US,70243701,-73.97,40.86,-300,Eastern Standard Time,GMT-05:00 America/New_York,12/8/2013 17:41,2/3/2017 0:00
355678be-ef6f-43ca-9daa-529f7dd63289,10596,"Franklin, NJ",Starbucks,11690-104888,973-209-4224,CO,111 Rt. 23 South,,,Franklin,NJ,US,74162005,-74.58,41.11,-300,Eastern Standard Time,GMT-05:00 America/New_York,12/8/2013 17:41,2/3/2017 0:00
6a22465c-1082-4822-a3ed-ca8e67a20e3c,16961,Franklin Lakes,Starbucks,11928-104892,201-848-5045,CO,816 High Mountain Rd.,,Urban Farms Shopping Center,Franklin Lakes,NJ,US,74172105,-74.21,40.99,-300,Eastern Standard Time,GMT-05:00 America/New_York,12/8/2013 17:41,2/3/2017 0:00
0dc2df71-5d42-4b8e-ae8c-939fd0524461,10202,Stop & Shop-Franklin #802,Starbucks,79448-104049,732-422-4420,LS,3333 Rt. 27,,,Franklin TWP,NJ,US,88231312,-74.56,40.43,-300,Eastern Standard Time,GMT-05:00 America/New_York,12/8/2013 17:41,2/3/2017 0:00
9548b18e-ff30-4a1c-8e89-09f6003983cf,6965,Freehold Raceway Mall,Starbucks,14266-108195,732-683-9274,CO,3710 Route 9,,Freehold Raceway Mall,Freehold,NJ,US,77289809,-74.3,40.25,-300,Eastern Standard Time,GMT-05:00 America/New_York,12/8/2013 17:41,2/3/2017 0:00
83d7f3e4-533a-4914-ba2e-814a2b0764ee,15596,Freehold (B&N),Starbucks,7204-624,(732) 577-0822,CO,3981 US Highway 9,,,Freehold,NJ,US,77282561,-74.29,40.26,-300,Eastern Standard Time,GMT-05:00 America/New_York,12/8/2013 17:41,2/3/2017 0:00
33957b4e-19c7-40c6-bbef-b72fe02397c4,8854,Route 537 Freehold,Starbucks,7758-59423,732-683-9731,CO,11 Village Center Drive,,,Freehold,NJ,US,77282526,-74.31,40.24,-300,Eastern Standard Time,GMT-05:00 America/New_York,12/8/2013 17:41,2/3/2017 0:00
e57a821c-5994-490c-b451-cb174c6237b6,1006755,Freehold,Starbucks,22993-226584,7324091491,CO,621 U.S Highway 9,,,Freehold,NJ,US,7728,-74.26,40.21,-300,Eastern Standard Time,GMT-05:00 America/New_York,9/23/2014 0:00,2/3/2017 0:00
f3edbc76-4658-49c4-8384-6dd4531eda52,1014756,Galloway Township,Starbucks,25707-242204,6095692724,CO,68 W. Jimmie Leeds Rd,B1,,Galloway,NJ,US,8205,-74.54,39.48,-300,Eastern Standard Time,GMT-05:00 America/New_York,5/7/2016 0:00,2/3/2017 0:00
f3cc4503-2c85-4c12-97d8-81a8fee4c365,13831,Gillette,Starbucks,8811-94620,908-580-1212,CO,977 Valley Road,,Valley Mall Shopping Center,Gillette,NJ,US,79331813,-74.48,40.67,-300,Eastern Standard Time,GMT-05:00 America/New_York,12/8/2013 17:41,2/3/2017 0:00
e9c0ca34-9f2b-4b0b-ad77-e7d008b9d936,6409,Glen Ridge,Starbucks,13383-104771,973 743 1752,CO,710 Bloomfield Ave.,,,Glen Ridge,NJ,US,70282332,-74.2,40.8,-300,Eastern Standard Time,GMT-05:00 America/New_York,12/8/2013 17:41,2/3/2017 0:00
5e3a99c7-7f13-48d6-b232-84d517c823f5,16367,Glen Rock,Starbucks,7700-32162,201-493-8261,CO,224 Rock Road,,,Glen Rock,NJ,US,74521709,-74.13,40.96,-300,Eastern Standard Time,GMT-05:00 America/New_York,12/8/2013 17:41,2/3/2017 0:00
570acd92-40c2-44fc-a93a-12769d4a985e,1009363,Gloucester Premium Outlets,Starbucks,23733-224985,6093154107,CO,1125 S Black Horse Pike,Space 575,,Gloucester Township,NJ,US,8012,-75.05,39.78,-300,Eastern Standard Time,GMT-05:00 America/New_York,8/18/2015 0:00,2/3/2017 0:00
c1442d81-5c96-4291-8921-2afece09d174,1008746,"Green Brook, NJ",Starbucks,21251-209324,732-968-5215,CO,287 Route 22,,,Green Brook,NJ,US,8812,-74.5,40.59,-300,Eastern Standard Time,GMT-05:00 America/New_York,11/25/2014 0:00,2/3/2017 0:00
3f2d639e-08b7-4ee4-969a-6d1888c806cb,15307,Hackensack,Starbucks,7852-67261,201-457-3323,CO,360 Essex Street,,Sanzari Medical Arts Building,Hackensack,NJ,US,76018550,-74.06,40.88,-300,Eastern Standard Time,GMT-05:00 America/New_York,12/8/2013 17:41,2/3/2017 0:00
bfd5334b-a6a0-468f-94c9-cdafc161d1c6,1005923,Target Hackensack T-1330,Starbucks,20966-208924,201-678-0599,LS,630 Main St,,,Hackensack,NJ,US,7601,-74.04,40.9,-300,Eastern Standard Time,GMT-05:00 America/New_York,12/8/2013 17:41,2/3/2017 0:00
47a4ddb6-9e15-4dbf-ac8d-b741be96bd11,10700,Target Washington Township T-2446,Starbucks,76977-136629,908-452-9251,LS,68 US Highway 46 W,,,Hackettstown,NJ,US,78404978,-74.81,40.85,-300,Eastern Standard Time,GMT-05:00 America/New_York,12/8/2013 17:41,2/3/2017 0:00
1a81b6ae-f815-4cdd-9bb0-f34266d90b9f,1005220,"Hackettstown, NJ",Starbucks,19242-195985,9088501845,CO,1885 Route 57,,,Hackettstown,NJ,US,7840,-74.84,40.82,-300,Eastern Standard Time,GMT-05:00 America/New_York,12/8/2013 17:41,2/3/2017 0:00
d2ad3888-974a-4ae6-82d0-d08c0c765d09,13477,Haddonfield,Starbucks,7233-606,856-429-8110,CO,214-216 Kings Highway,,,Haddonfield,NJ,US,80331905,-75.03,39.9,-300,Eastern Standard Time,GMT-05:00 America/New_York,12/8/2013 17:41,2/3/2017 0:00
b11ef51b-905b-41a5-81c0-bd173c6979f2,8492,Hamilton Trenton,Starbucks,8964-95200,609-581-0457,CO,1150 Whitehorse-Mercerville Road,,,Hamilton,NJ,US,86193812,-74.69,40.21,-300,Eastern Standard Time,GMT-05:00 America/New_York,12/8/2013 17:41,2/3/2017 0:00
93411c5d-38ae-4d5a-af52-4da42a2e62d1,13175,Farley Travel Plaza,Starbucks,72424-6846,609-965-3546,LS,Atlantic City Expressway Mile Marker 20,,,Hammonton,NJ,US,8037,-74.74,39.55,-300,Eastern Standard Time,GMT-05:00 America/New_York,12/8/2013 17:41,2/3/2017 0:00
bcc9f71e-e161-4a61-a3b6-3f9116e7c4f3,16660,Hasbrouck Heights,Starbucks,7428-1904,201-288-7812,CO,201-211 Route 17 South,,,Hasbrouck Heights,NJ,US,7604,-74.07,40.86,-300,Eastern Standard Time,GMT-05:00 America/New_York,12/8/2013 17:41,2/3/2017 0:00
3fb01771-22b3-4b27-96bb-5647fd32d7e6,13491,Hillsborough,Starbucks,7332-1268,(908) 359-8266,CO,601 Route 206 & 514,Suite #21,Nelsons Corner Shopping Center,Hillsborough,NJ,US,8844,-74.65,40.5,-300,Eastern Standard Time,GMT-05:00 America/New_York,12/8/2013 17:41,2/3/2017 0:00
8f1b35f6-507f-4758-a912-0014da7415f9,13828,Hillsdale,Starbucks,2972-92906,201-664-2224,CO,126 Broadway,,,Hillsdale,NJ,US,76422023,-74.04,41,-300,Eastern Standard Time,GMT-05:00 America/New_York,12/8/2013 17:41,2/3/2017 0:00
bb5de8ff-ac52-42d0-93f4-0e8e51446e78,12089,Newark St. Hoboken,Starbucks,7348-1370,(201) 876-0300,CO,51 Newark Street,,,Hoboken,NJ,US,70304548,-74.03,40.74,-300,Eastern Standard Time,GMT-05:00 America/New_York,12/8/2013 17:41,2/3/2017 0:00
c404ee1a-a5e9-408d-a182-637aa5e50773,16852,Hoboken - 12th & Hudson,Starbucks,7489-4450,201-792-5400,CO,1205 N. Hudson Street,,The Shipyards at 12th & Hudson,Hoboken,NJ,US,70305404,-74.03,40.75,-300,Eastern Standard Time,GMT-05:00 America/New_York,12/8/2013 17:41,2/3/2017 0:00
5aab82ab-ec02-4ab2-9b2c-f14dacc3508e,7285,"Hoboken, Washington St.",Starbucks,14479-123745,201-222-2491,CO,314  Washington Ave.,,,Hoboken,NJ,US,70304880,-74.03,40.74,-300,Eastern Standard Time,GMT-05:00 America/New_York,12/8/2013 17:41,2/3/2017 0:00
668a2097-2139-4d72-a389-8fc257467172,14224,Howell - Route 9,Starbucks,2773-69720,732-886-7086,CO,4701 Rte. 9 No.,Space T1B10,,Howell,NJ,US,7731,-74.22,40.14,-300,Eastern Standard Time,GMT-05:00 America/New_York,12/8/2013 17:41,2/3/2017 0:00
343e6921-12fd-47f8-9c19-771f03ca9dd8,13554,Rt. 1 North Woodbridge,Starbucks,7719-53119,732-596-9112,CO,774 Route 1 N,,,Iselin,NJ,US,8830,-74.3,40.56,-300,Eastern Standard Time,GMT-05:00 America/New_York,12/8/2013 17:41,2/3/2017 0:00
cab9bc76-7a4f-43b9-8f15-237bc3f8c080,16665,Jersey City,Starbucks,7383-1554,201 6109766,CO,111 Town Square Place,,,Jersey City,NJ,US,73101755,-74.03,40.73,-300,Eastern Standard Time,GMT-05:00 America/New_York,12/8/2013 17:41,2/3/2017 0:00
4d2d6907-3deb-4a63-86ff-8f17b6e50797,90279,"Jersey City, Exchange Place",Starbucks,17862-134219,201-332-3920,CO,15 Exchange Place,Suite 110,,Jersey City,NJ,US,7302,-74.03,40.72,-300,Eastern Standard Time,GMT-05:00 America/New_York,12/8/2013 17:41,2/3/2017 0:00
98c83258-ed7c-424e-8219-9b0c25f0bce8,10470,Grove Point,Starbucks,13350-104737,201-332-2385,CO,98 Christopher Columbus Drive,,,Jersey City,NJ,US,73022947,-74.04,40.72,-300,Eastern Standard Time,GMT-05:00 America/New_York,12/8/2013 17:41,2/3/2017 0:00
46561872-d35e-470d-9daf-bf3231682396,12554,Target Jersey City T-1886,Starbucks,76238-90970,201-499-0017,LS,100 14th St,,,Jersey City,NJ,US,73101202,-74.04,40.73,-300,Eastern Standard Time,GMT-05:00 America/New_York,12/8/2013 17:41,2/3/2017 0:00
973fcb8c-7b03-48c9-be67-fefd99de8b06,1005866,Newport Mall,Starbucks,19500-201864,2017923109,CO,30 Mall Drive West,A-36,Newport Centre,Jersey City,NJ,US,73101615,-74.04,40.73,-300,Eastern Standard Time,GMT-05:00 America/New_York,12/8/2013 17:41,2/3/2017 0:00
122c6549-b539-4407-b933-b5be9b3e9ffb,6926,Acme - Kenilworth #1096,Starbucks,73857-94450,908-241-4424,LS,801 Kenilworth Blvd,,,Kenilworth,NJ,US,7033,-74.28,40.68,-300,Eastern Standard Time,GMT-05:00 America/New_York,12/8/2013 17:41,2/3/2017 0:00
1f0d3262-9055-41f8-bbab-0a9d41ccaffe,7749,"Lakewood, NJ",Starbucks,11533-104575,732-262-7435,CO,1865 Route 70,,Lakewood Hilton Gardens Project,Lakewood,NJ,US,8701,-74.16,40.06,-300,Eastern Standard Time,GMT-05:00 America/New_York,12/8/2013 17:41,2/3/2017 0:00
16833996-84a3-4b96-adee-4dc7836824fc,1005474,Quaker Bridge,Starbucks,19504-106919,6097997838,CO,150 Quaker Bridge Mall RD,2026,Quaker Bridge Mall,Lawrenceville,NJ,US,8648,-74.68,40.29,-300,Eastern Standard Time,GMT-05:00 America/New_York,12/8/2013 17:41,2/3/2017 0:00
30ab08b3-5144-4f08-b2a1-74cf598b05e8,13488,Mercer Mall,Starbucks,7309-980,(609) 987-1020,CO,301 Mercer Mall,,,Lawrenceville,NJ,US,86481309,-74.68,40.3,-300,Eastern Standard Time,GMT-05:00 America/New_York,12/8/2013 17:41,2/3/2017 0:00
2637aa46-733e-40c8-b74d-b4594191b013,7507,Rider University/Student Rec Center,Starbucks,75468-106281,609-896-7793,LS,2083 Lawrenceville Rd,,,Lawrenceville,NJ,US,86483001,-74.73,40.28,-300,Eastern Standard Time,GMT-05:00 America/New_York,12/8/2013 17:41,2/3/2017 0:00
dbb869fb-0e59-45ee-8f10-b84d99a9ae84,1009149,Lawrenceville,Starbucks,23592-231284,6094143320,CO,2673 Main St,,,Lawrenceville,NJ,US,8648,-74.73,40.3,-300,Eastern Standard Time,GMT-05:00 America/New_York,9/9/2015 0:00,2/3/2017 0:00
eb0b1f48-0404-4810-aedd-eb8a7ff5ec7b,1016741,Acme - Lincroft #7932,Starbucks,50211-272268,7329360668,LS,619 Newman Springs Road,,,Lincroft,NJ,US,7738,-74.12,40.33,-300,Eastern Standard Time,GMT-05:00 America/New_York,1/19/2017 0:00,2/3/2017 0:00
831b8ab6-32bf-4a8f-972a-8186a0240f9f,14733,Linden,Starbucks,7739-44906,908-862-8545,CO,693 West Edgar Road,,Aviation Plaza at Linden,Linden,NJ,US,70363203,-74.25,40.62,-300,Eastern Standard Time,GMT-05:00 America/New_York,12/8/2013 17:41,2/3/2017 0:00
c8e624b8-0a79-49c6-997c-f78ece02a497,17427,"Rte 46 W, Little Ferry",Starbucks,10643-101721,201-373-0139,CO,300 Route 46 West,,,Little Ferry,NJ,US,7643,-74.04,40.86,-300,Eastern Standard Time,GMT-05:00 America/New_York,12/8/2013 17:41,2/3/2017 0:00
cd180b67-0e08-44fc-99b7-d2ca9d8a331e,16680,Livingston,Starbucks,7243-563,973-533-1669,CO,1 West Mt. Pleasant Avenue,,,Livingston,NJ,US,70392972,-74.32,40.8,-300,Eastern Standard Time,GMT-05:00 America/New_York,12/8/2013 17:41,2/3/2017 0:00
e65543f8-e18a-4b42-b6f3-692164cdd913,11092,Madison,Starbucks,7552-13240,973-410-0244,CO,309 Main Street,,,Madison,NJ,US,79402338,-74.4,40.75,-300,Eastern Standard Time,GMT-05:00 America/New_York,12/8/2013 17:41,2/3/2017 0:00
d4eb2db4-5887-4253-9ee0-ee0ab3e15268,6847,Acme - Mahwah #1058,Starbucks,73858-93628,201-512-9100,LS,125 Franklin Tpke,,,Mahwah,NJ,US,74301341,-74.15,41.1,-300,Eastern Standard Time,GMT-05:00 America/New_York,12/8/2013 17:41,2/3/2017 0:00
f625b224-b332-4847-9a83-1b63ff5f346c,7720,Target Stafford Township T-2392,Starbucks,76936-129484,(609) 978-4922,LS,209 Stafford Park Blvd,,,Manahawkin,NJ,US,8050,-74.29,39.71,-300,Eastern Standard Time,GMT-05:00 America/New_York,12/8/2013 17:41,2/3/2017 0:00
7438aa18-0c85-4431-9ffe-7810b961e91e,15286,Route 9 Manalapan,Starbucks,7753-9873,732-625-9029,CO,310 Route 9 North,,,Manalapan,NJ,US,7726,-74.3,40.31,-300,Eastern Standard Time,GMT-05:00 America/New_York,12/8/2013 17:41,2/3/2017 0:00
58a8d353-6b6f-4035-9485-843ad06f5dd6,12890,Margate NJ,Starbucks,75632-84440,6094879989,LS,8005 Ventnor Ave,,,Margate City,NJ,US,84022733,-74.5,39.33,-300,Eastern Standard Time,GMT-05:00 America/New_York,12/8/2013 17:41,2/3/2017 0:00
853242ca-9525-47f8-a326-1fa1650639d8,16817,Matawan,Starbucks,7438-2865,732-441-4185,CO,265 Main Street,,Main Street Village,Matawan,NJ,US,77473222,-74.23,40.41,-300,Eastern Standard Time,GMT-05:00 America/New_York,12/8/2013 17:41,2/3/2017 0:00
c3b4bf6f-4522-42c3-8a5d-3761a3ae328a,15296,Mays Landing Wrangleboro,Starbucks,7793-54879,609-645-0688,CO,760 Consumer Square,,Wrangleboro Consumer Center,Mays Landing,NJ,US,83303394,-74.64,39.45,-300,Eastern Standard Time,GMT-05:00 America/New_York,12/8/2013 17:41,2/3/2017 0:00
ea5c536f-3426-4ed2-9632-52ae60a09040,15654,Medford,Starbucks,7584-16495,609-953-5732,CO,560 Stokes Road,,Ironstone Village Shoppes,Medford,NJ,US,80552905,-74.81,39.87,-300,Eastern Standard Time,GMT-05:00 America/New_York,12/8/2013 17:41,2/3/2017 0:00
6188a975-75db-4c18-ab21-600118172ab0,11058,Rte 35-Middletown,Starbucks,7617-21884,732-706-7360,CO,2011 Route 35,,,Middletown,NJ,US,77481830,-74.13,40.41,-300,Eastern Standard Time,GMT-05:00 America/New_York,12/8/2013 17:41,2/3/2017 0:00
73fb103b-1e69-44b8-9f2c-ceb39356f192,7504,Midland Park Shopping Center,Starbucks,11929-105443,201-444-1236,CO,85 Godwin Ave,,Midland Park Shopping Center,Midland Park,NJ,US,74321970,-74.14,40.98,-300,Eastern Standard Time,GMT-05:00 America/New_York,12/8/2013 17:41,2/3/2017 0:00
f1447054-9036-4305-9a92-e764c57e08d7,15037,Millburn,Starbucks,7276-757,973-258-1986,CO,343 Millburn Avenue,,,Millburn,NJ,US,7041,-74.31,40.72,-300,Eastern Standard Time,GMT-05:00 America/New_York,12/8/2013 17:41,2/3/2017 0:00
2b35e996-0d1c-4103-abcc-a852ecb3fdef,13184,Joyce Kilmer Travel Plaza,Starbucks,72451-9973,,LS,"Milepost 78.7 NB, NJ Turnpike",,,Milltown,NJ,US,8850,-74.44,40.42,-300,Eastern Standard Time,GMT-05:00 America/New_York,12/8/2013 17:41,2/3/2017 0:00
d90d06c2-b942-46c3-8000-e5a18756fca3,10153,Target Millville T-2170,Starbucks,76696-98031,856-327-7340,LS,2116 N 2nd St,,,Millville,NJ,US,83321304,-75.04,39.42,-300,Eastern Standard Time,GMT-05:00 America/New_York,12/8/2013 17:41,2/3/2017 0:00
0b3b242a-666a-4e35-8ba6-0dd5c48f834e,6512,Montclair - Church & South Park,Starbucks,13856-108464,973-746-0291,CO,40 South Park St,,The Siena,Montclair,NJ,US,70422716,-74.22,40.81,-300,Eastern Standard Time,GMT-05:00 America/New_York,12/8/2013 17:41,2/3/2017 0:00
33102666-f03c-459c-bcea-6ace34bfa8bd,113436,NJ Montvale Travel Plaza.,Starbucks,17222-143484,201-391-8509,LS,Montvale Service Area mile 173 Garden St,,,Montvale,NJ,US,7645,-74.05,41.05,-300,Eastern Standard Time,GMT-05:00 America/New_York,12/8/2013 17:41,2/3/2017 0:00
88376efd-f06b-47b9-b18a-06c6f24aa231,1013729,Moorestown Mall Kiosk,Starbucks,27055-246590,6096057255,CO,400 New Jersey 38,,,Moorestown,NJ,US,8057,-74.96,39.94,-300,Eastern Standard Time,GMT-05:00 America/New_York,12/18/2015 0:00,2/3/2017 0:00
09daa5fe-65fa-43b0-a6f5-5876d7f9f495,11050,Moorestown-Wright's Hardware,Starbucks,7659-36499,856-722-8175,CO,41 East Main Street,,,Moorestown,NJ,US,80573309,-74.95,39.96,-300,Eastern Standard Time,GMT-05:00 America/New_York,12/8/2013 17:41,2/3/2017 0:00
45500556-fd3e-4b42-8fdd-d363dbccd5ae,15305,"Rte 9, Marlboro",Starbucks,7843-81104,732-536-2760,CO,67 Route 9 South,,,Morganville,NJ,US,7751,-74.31,40.35,-300,Eastern Standard Time,GMT-05:00 America/New_York,12/8/2013 17:41,2/3/2017 0:00
7723d53f-0d28-43fb-a760-ca320fde215b,8579,Stop & Shop-Morris Plains # 893,Starbucks,79414-101834,973-683-0100,LS,245 Littleton Road,,,Morris Plains,NJ,US,79502921,-74.46,40.84,-300,Eastern Standard Time,GMT-05:00 America/New_York,12/8/2013 17:41,2/3/2017 0:00
b0e83e93-cd0c-4e56-b378-6919407e5da2,1006965,Morristown Medical Ctr - Main Locat,Starbucks,23132-226725,973-605-5034,LS,100 Madison Ave,,,Morristown,NJ,US,7960,-74.46,40.79,-300,Eastern Standard Time,GMT-05:00 America/New_York,3/17/2015 0:00,2/3/2017 0:00
28475057-f410-4834-8179-763bd63e56df,63068,"Morristown, Park Place",Starbucks,15236-155385,973-267-5751,CO,40 Park Place,,,Morristown,NJ,US,7960,-74.48,40.8,-300,Eastern Standard Time,GMT-05:00 America/New_York,12/8/2013 17:41,2/3/2017 0:00
940189c5-694c-40c7-95b4-071456fc1a3c,16249,Target Mount Laurel T-1917,Starbucks,76283-92341,856-533-1197,LS,4 Centerton Rd,,,Mount Laurel,NJ,US,80546102,-74.91,39.97,-300,Eastern Standard Time,GMT-05:00 America/New_York,12/8/2013 17:41,2/3/2017 0:00
7fedf131-2838-4f86-a5d1-1d7ad0e476fa,113206,Route 73 & Fellowship Road,Starbucks,17100-94557,856 2220328,CO,550 Fellowship Road,,,Mount Laurel,NJ,US,8054,-74.96,39.93,-300,Eastern Standard Time,GMT-05:00 America/New_York,12/8/2013 17:41,2/3/2017 0:00
ef4ad09a-ddf8-4d8b-b8de-4a94f031505f,113435,NJ James Cooper Travel Plaza,Starbucks,17219-176967,856-234-4930,LS,5 Hartford Rd,,,Mount Laurel,NJ,US,8054,-74.89,39.98,-300,Eastern Standard Time,GMT-05:00 America/New_York,12/8/2013 17:41,2/3/2017 0:00
be8fb762-de62-4d47-9c56-814a3981292e,8127,Mount Laurel Centerton Square,Starbucks,9438-95597,856-802-0187,CO,10 Centerton Road,Suite D,Centerton Square Shopping Center,Mount Laurel,NJ,US,80546102,-74.91,39.97,-300,Eastern Standard Time,GMT-05:00 America/New_York,12/8/2013 17:41,2/3/2017 0:00
06230120-cec2-4641-aef6-8b6eae8b49ee,16002,New Brunswick,Starbucks,7292-1170,732-828-8946,CO,391 George Street,,Kilmer Square,New Brunswick,NJ,US,8901,-74.44,40.5,-300,Eastern Standard Time,GMT-05:00 America/New_York,12/8/2013 17:41,2/3/2017 0:00
04bc9d5d-ce9d-4a81-8afb-f2809d2a7e33,1015971,Rutgers University-The Yard,Starbucks,48624-237152,,LS,38 Colllege Ave.,,,New Brunswick,NJ,US,8901,-74.45,40.5,-300,Eastern Standard Time,GMT-05:00 America/New_York,12/14/2016 0:00,2/3/2017 0:00
cd231042-d448-40ef-947e-b7ea6b573449,1006580,New Providence Village Center,Starbucks,20380-205045,9084640624,CO,1260 Springfield Avenue,,,New Providence,NJ,US,7974,-74.4,40.71,-300,Eastern Standard Time,GMT-05:00 America/New_York,1/24/2014 0:00,2/3/2017 0:00
72492702-0ef9-487c-8485-635dc0533fbe,13012,"EWR - Newark Concourse C, Space 86",Starbucks,75593-77287,,LS,"Terminal C, Space 86",,,Newark,NJ,US,7114,-74.17,40.69,-300,Eastern Standard Time,GMT-05:00 America/New_York,12/8/2013 17:41,2/3/2017 0:00
97abc944-a4bb-4da2-a094-b19adf8170c9,13008,"EWR - Newark Term C, Space B-50",Starbucks,75579-64502,,LS,"Terminal C, Space B-50",,,Newark,NJ,US,7114,-74.17,40.69,-300,Eastern Standard Time,GMT-05:00 America/New_York,12/8/2013 17:41,2/3/2017 0:00
0c39a33b-aff4-4ff7-945a-cc1b37af23ca,8310,Rutgers U/Newark Robeson Stdnt Ctr,Starbucks,75299-79635,973-353-5998,LS,350 Martin Luther King Blvd,,,Newark,NJ,US,71021801,-74.18,40.74,-300,Eastern Standard Time,GMT-05:00 America/New_York,12/8/2013 17:41,2/3/2017 0:00
56feacb2-c556-48f3-965a-d7fb14078459,1012914,Shoppes on Broad,Starbucks,26152-243613,9735580253,CO,Broad Street,,,Newark,NJ,US,7102,-74.17,40.74,-300,Eastern Standard Time,GMT-05:00 America/New_York,9/9/2015 0:00,2/3/2017 0:00
2195098f-65ea-4664-85c8-2cc349256c9b,12553,Target North Bergen Commons T-1865,Starbucks,76237-89024,201-520-1701,LS,7101 Tonnelle Ave,,,North Bergen,NJ,US,70474507,-74.02,40.8,-300,Eastern Standard Time,GMT-05:00 America/New_York,12/8/2013 17:41,2/3/2017 0:00
f078f14b-4d3d-4797-888a-45aa76cf0437,1007322,"North Bergen, River Rd.",Starbucks,19703-199245,2014242820,CO,7301 River Rd.,,,North Bergen,NJ,US,7047,-74,40.79,-300,Eastern Standard Time,GMT-05:00 America/New_York,3/5/2016 0:00,2/3/2017 0:00
4d0dc977-d13a-415e-befe-71892a497c87,6929,"North Brunswick, NJ",Starbucks,11363-103664,732 843-4980,CO,522 Shoppes Boulevard,,Shoppes at North Brunswick,North Brunswick,NJ,US,89022798,-74.46,40.46,-300,Eastern Standard Time,GMT-05:00 America/New_York,12/8/2013 17:41,2/3/2017 0:00
23904afa-c7df-4c1e-9d8b-fd079002802a,1009057,Target North Brunswick T-2853,Starbucks,23510-214966,732-798-2558,LS,101 Grand Ave,,,North Brunswick,NJ,US,8902,-74.5,40.44,-300,Eastern Standard Time,GMT-05:00 America/New_York,10/17/2014 0:00,2/3/2017 0:00
3f8dbc62-884a-49ee-879b-e27b5a6c6700,1013620,NJ Grover Cleveland Travel Plaza,Starbucks,26647-242587,732-636-1292,LS,Mile Marker 92.9,,,North Woodbridge,NJ,US,7095,-74.26,40.56,-300,Eastern Standard Time,GMT-05:00 America/New_York,12/1/2015 0:00,2/3/2017 0:00
b8402a1d-9dce-41c5-904d-9a39bea8fc17,10479,"Northvale, NJ",Starbucks,10837-102453,201-767-0026,CO,271B Livingston St.,,Daibes Square at Northvale,Northvale,NJ,US,76471915,-73.95,41.02,-300,Eastern Standard Time,GMT-05:00 America/New_York,12/8/2013 17:41,2/3/2017 0:00
ddd5d97b-f374-4611-a6d0-b7e525a34e03,12414,Nutley,Starbucks,7649-34579,973-562-0045,CO,483 Franklin Avenue,,,Nutley,NJ,US,71101719,-74.16,40.82,-300,Eastern Standard Time,GMT-05:00 America/New_York,12/8/2013 17:41,2/3/2017 0:00
d7a324e6-b943-45fc-b7a7-58c15e77492f,11951,Route 35 - Oakhurst,Starbucks,7496-9052,732-493-8770,CO,2100 Highway 35,,,Oakhurst,NJ,US,7755,-74.04,40.26,-300,Eastern Standard Time,GMT-05:00 America/New_York,12/8/2013 17:41,2/3/2017 0:00
e35c2d6f-826b-4afc-be09-64b5efb59a43,10768,Oakland,Starbucks,14497-116306,201-337-1596,CO,411 Rampo Valley Rd,,,Oakland,NJ,US,74362707,-74.24,41.03,-300,Eastern Standard Time,GMT-05:00 America/New_York,12/8/2013 17:41,2/3/2017 0:00
18c5d4df-433c-4749-8915-9b32328155fd,1008829,Target Ocean T-1378,Starbucks,21146-209384,732-918-6645,LS,2331 State Route 66,,,Ocean,NJ,US,7712,-74.05,40.23,-300,Eastern Standard Time,GMT-05:00 America/New_York,12/30/2014 0:00,2/3/2017 0:00
c9d20979-f318-46a3-8301-38d0833e4367,1006532,"Ocean City, NJ - Asbury Ave.",Starbucks,21403-206765,6099386905,LS,1061 Asbury Ave,,,Ocean City,NJ,US,8226,-74.58,39.28,-300,Eastern Standard Time,GMT-05:00 America/New_York,1/8/2014 0:00,2/3/2017 0:00
4b3e54f4-9cc6-4814-92bb-12aa85f3b67c,1015457,Rt. 66 & S. Seaview Square Drive,Starbucks,7854-235004,7329222780,CO,2301 Rt 66,,,Ocean Township,NJ,US,7712,-74.05,40.23,-300,Eastern Standard Time,GMT-05:00 America/New_York,8/2/2016 0:00,2/3/2017 0:00
0788181a-8477-426f-8629-a3e45c294388,10589,Acme - Old Bridge #2827,Starbucks,73920-94742,732-679-7189,LS,3500 US-9,,,Old Bridge,NJ,US,88572767,-74.31,40.38,-300,Eastern Standard Time,GMT-05:00 America/New_York,12/8/2013 17:41,2/3/2017 0:00
f5855c2c-30fb-41ee-9426-0c854b4e3d0a,13476,Old Tappan,Starbucks,7232-567,201-722-1132,CO,216 Old Tappan Road,,,Old Tappan,NJ,US,7675,-73.98,41.01,-300,Eastern Standard Time,GMT-05:00 America/New_York,12/8/2013 17:41,2/3/2017 0:00
31eede7b-1aca-4bdc-9676-0ef479e7e445,9725,Rt. 4 - Paramus,Starbucks,2973-7147,201-843-4582,CO,65 Route 4 West,,,Paramus,NJ,US,7652,-74.07,40.92,-300,Eastern Standard Time,GMT-05:00 America/New_York,12/8/2013 17:41,2/3/2017 0:00
a471da09-ce30-44bd-9b15-31dd42a0fd69,10866,Target Paramus T-2381,Starbucks,70349-137946,(201) 881-7660,LS,900 Bergen Town Center,,,Paramus,NJ,US,76525005,-74.06,40.92,-300,Eastern Standard Time,GMT-05:00 America/New_York,12/8/2013 17:41,2/3/2017 0:00
ec81b2ab-23e4-4c7e-a5bd-47da3271b30c,1006249,Garden State Plaza - Lower level,Starbucks,19244-199704,201 8430267,CO,1 Garden State Plaza,Space #9145,,Paramus,NJ,US,7652,-74.08,40.92,-300,Eastern Standard Time,GMT-05:00 America/New_York,12/8/2013 17:41,2/3/2017 0:00
23063156-2051-474d-a3bf-58cbb22b06e8,16370,Rte 17N - Paramus,Starbucks,7755-32200,201-262-9202,CO,370 Route 17 N,,The Container Store Project,Paramus,NJ,US,7652,-74.07,40.95,-300,Eastern Standard Time,GMT-05:00 America/New_York,12/8/2013 17:41,2/3/2017 0:00
c86d99f4-94ed-441a-b1fd-9476c7cf78bb,13529,Rt 17 South Paramus,Starbucks,7533-6907,201 599 0740,CO,177 Route 17 South,,,Paramus,NJ,US,7652,-74.07,40.93,-300,Eastern Standard Time,GMT-05:00 America/New_York,12/8/2013 17:41,2/3/2017 0:00
39b14237-73a2-41d9-a7bb-bc86e117e7de,1006689,Garden State Plaza - Upper level,Starbucks,21769-210086,201 8437651,CO,1 Garden State Plaza,Space #2304,,Paramus,NJ,US,7652,-74.08,40.92,-300,Eastern Standard Time,GMT-05:00 America/New_York,3/24/2014 0:00,2/3/2017 0:00
f1361833-fb5c-45a9-81aa-fdd1cdefe902,1015106,Park Ridge,Starbucks,28755-250870,2016691532,CO,191 Kinderkamack Road,,,Park Ridge,NJ,US,7656,-74.03,41.04,-300,Eastern Standard Time,GMT-05:00 America/New_York,6/18/2016 0:00,2/3/2017 0:00
7b730c8a-2529-44d7-90b0-2d3b4a977d4b,16012,Hopewell,Starbucks,7853-77642,609-818-1541,CO,800 A Denow Road,,,Pennington,NJ,US,85345246,-74.78,40.3,-300,Eastern Standard Time,GMT-05:00 America/New_York,12/8/2013 17:41,2/3/2017 0:00
14f536b7-0c7d-46ed-b4d1-4675f858c030,13187,John Fenwick Travel Plaza,Starbucks,72454-9953,,LS,"Milepost 5.4 NB, NJ Turnpike",,,Penns Grove,NJ,US,8069,-75.45,39.69,-300,Eastern Standard Time,GMT-05:00 America/New_York,12/8/2013 17:41,2/3/2017 0:00
49eef7c6-b5ae-4677-89cc-540da581bb6f,114083,NJ Clara Barton TP,Starbucks,70060-129264,856-299-6051,LS,NJTP Mile Marker 5.4 Southbound,,,Pennsgrove,NJ,US,8069,-75.46,39.72,-300,Eastern Standard Time,GMT-05:00 America/New_York,12/8/2013 17:41,2/3/2017 0:00
0057182f-1f1e-479f-8f2a-02e53dfacea3,10018,Stop & Shop - Phillipsburg #816,Starbucks,79455-98841,908-859-8220,LS,1278 US Hwy 22,,,Phillipsburg,NJ,US,88654123,-75.15,40.68,-300,Eastern Standard Time,GMT-05:00 America/New_York,12/8/2013 17:41,2/3/2017 0:00
827776e8-9d60-4e24-bb5d-440c7d45f601,1007335,Phillipsburg,Starbucks,22004-214844,9088783183,CO,1198 US Highway 22,,,Phillipsburg,NJ,US,8865,-75.15,40.69,-300,Eastern Standard Time,GMT-05:00 America/New_York,8/25/2015 0:00,2/3/2017 0:00
9150b1ac-a2c2-43b8-920b-bbea86140bfd,1006185,Target Phillipsburg T-1464,Starbucks,20970-208926,908-387-1305,LS,1204 New Brunswick Ave,,,Phillipsburg,NJ,US,8865,-75.14,40.67,-300,Eastern Standard Time,GMT-05:00 America/New_York,12/8/2013 17:41,2/3/2017 0:00
a825dcb2-fcb8-4535-bf80-3be931553467,1015450,Rutgers University Truck,Starbucks,48503-261427,848-445-7200,LS,110 Ethel Rd West,Suite B,,Piscataway,NJ,US,8854,-74.44,40.52,-300,Eastern Standard Time,GMT-05:00 America/New_York,8/30/2016 0:00,2/3/2017 0:00
578bdb82-77ff-45af-9317-65754b2b2ccd,1005709,Rutgers University-Plaza at Livings,Starbucks,19466-179945,848-445-7338,LS,105 Joyce Kilmer Ave,#30,,Piscataway,NJ,US,8854,-74.43,40.52,-300,Eastern Standard Time,GMT-05:00 America/New_York,12/8/2013 17:41,2/3/2017 0:00
89c7e2ea-c788-419b-8ec0-c0b071113f81,13830,Piscataway,Starbucks,2863-44901,732-981-9333,CO,1364 Centennial Way,,Centennial Plaza,Piscataway,NJ,US,88544318,-74.44,40.55,-300,Eastern Standard Time,GMT-05:00 America/New_York,12/8/2013 17:41,2/3/2017 0:00
de513cdc-aa53-4ea1-a893-a71b97f4ddcc,1007772,Absecon Travel Plaza - NJ Turnpike,Starbucks,23300-226924,609-404-4701,LS,Garden State Pkwy Mile Marker 41.3,,,Pomona,NJ,US,8240,-74.59,39.49,-300,Eastern Standard Time,GMT-05:00 America/New_York,7/1/2015 0:00,2/3/2017 0:00
2aa74a47-a472-488f-b87b-1f2b8035663a,10595,Pompton Lakes,Starbucks,14298-112284,973-248-8260,CO,45 Wanaque Avenue,,Pompton Lakes Town Square,Pompton Lakes,NJ,US,74422023,-74.29,41.01,-300,Eastern Standard Time,GMT-05:00 America/New_York,12/8/2013 17:41,2/3/2017 0:00
50a720cc-14d7-497c-86ae-4d16ebb7090d,15915,Princeton,Starbucks,7208-560,(609) 279-9204,CO,100 Nassau Street,,,Princeton,NJ,US,85424516,-74.66,40.35,-300,Eastern Standard Time,GMT-05:00 America/New_York,12/8/2013 17:41,2/3/2017 0:00
cb2bdbd0-306d-4aa5-b211-c0a918d7e23e,15201,Princeton Market Fair,Starbucks,7683-44902,609-919-1085,CO,3535 Rt. 1 Ste. 426,,Princeton Market Fair,Princeton,NJ,US,8540,-74.66,40.31,-300,Eastern Standard Time,GMT-05:00 America/New_York,12/8/2013 17:41,2/3/2017 0:00
2a20ca3d-c952-46c2-8677-1ee3674d36ba,16727,Ramsey Train Station,Starbucks,7271-814,(201) 760-0049,CO,8 West Main Street,,,Ramsey,NJ,US,74461810,-74.14,41.06,-300,Eastern Standard Time,GMT-05:00 America/New_York,12/8/2013 17:41,2/3/2017 0:00
dfbff423-c0b2-4089-8885-bf71c07f7fac,6905,Franklin Square - Ramsey,Starbucks,13982-106892,201 818-6860,CO,561 North Franklin Turnpike,,Franklin Square,Ramsey,NJ,US,74461157,-74.14,41.08,-300,Eastern Standard Time,GMT-05:00 America/New_York,12/8/2013 17:41,2/3/2017 0:00
e814108d-be80-44c2-8075-60fafad37916,16005,Red Bank,Starbucks,7254-831,732-530-3667,CO,4-6 White Street,,,Red Bank,NJ,US,77011635,-74.07,40.35,-300,Eastern Standard Time,GMT-05:00 America/New_York,12/8/2013 17:41,2/3/2017 0:00
e168394b-c394-40e5-bd1d-851120cb6ac1,1008730,Northeast Ridgewood,Starbucks,19502-199264,2014144273,CO,363 RT 17 South,,,Ridgewood,NJ,US,7450,-74.09,40.98,-300,Eastern Standard Time,GMT-05:00 America/New_York,8/25/2015 0:00,2/3/2017 0:00
d04c7a52-d3bb-44fc-81e3-cdc0b194d39d,14808,Ridgewood Downtown,Starbucks,879-2008,201-670-0690,CO,193 E Ridgewood Ave,,,Ridgewood,NJ,US,74503815,-74.12,40.98,-300,Eastern Standard Time,GMT-05:00 America/New_York,12/8/2013 17:41,2/3/2017 0:00
f97153f1-1d62-429e-94de-3fdf92f320d7,7807,Rio Grande,Starbucks,10461-100797,609-465-4151,CO,3301 Route 9 South,Unit T-1A,Rio Grande Shopping Center,Rio Grande,NJ,US,82421636,-74.87,39.02,-300,Eastern Standard Time,GMT-05:00 America/New_York,12/8/2013 17:41,2/3/2017 0:00
b7da1475-83b6-4b6d-a3a4-9659c95d66de,6534,Target Riverdale - T2247,Starbucks,76836-95674,973-850-2861,LS,94 SR-23,,,Riverdale,NJ,US,7457,-74.31,40.99,-300,Eastern Standard Time,GMT-05:00 America/New_York,12/8/2013 17:41,2/3/2017 0:00
b3ffea17-ea45-4d01-b8e5-0edfb701bb80,7062,Target Delran T-2104,Starbucks,76555-97487,856-544-9050,LS,4000 Route 130,,,Riverside,NJ,US,80752414,-74.96,40.01,-300,Eastern Standard Time,GMT-05:00 America/New_York,12/8/2013 17:41,2/3/2017 0:00
615e3acd-2104-447f-829a-54078f08169a,12552,Target Rockaway T-1864,Starbucks,76236-93128,973-989-5740,LS,381 Mt. Hope Ave,,,Rockaway,NJ,US,78661697,-74.56,40.91,-300,Eastern Standard Time,GMT-05:00 America/New_York,12/8/2013 17:41,2/3/2017 0:00
a7b05880-2280-47f0-a543-693d4142e25f,8037,"Rockaway, Ring Road",Starbucks,9660-97316,973-366-1752,CO,395 Mount Hope Avenue,300,,Rockaway,NJ,US,78661661,-74.56,40.91,-300,Eastern Standard Time,GMT-05:00 America/New_York,12/8/2013 17:41,2/3/2017 0:00
fa4a0484-ad0b-431b-8514-96b6a5cdf8c5,15283,Rockaway Townsquare Mall,Starbucks,7727-54799,973-989-8241,CO,301 Mt. Hope Avenue,,Rockaway Townsquare Mall,Rockaway,NJ,US,78662130,-74.55,40.91,-300,Eastern Standard Time,GMT-05:00 America/New_York,12/8/2013 17:41,2/3/2017 0:00
0ebaca6e-2bd6-4d9e-9def-acdbe144ec4f,17757,Roseland,Starbucks,9273-95101,973/364-9555,CO,43 Eisenhower Parkway,,Eagle Rock Plaza,Roseland,NJ,US,70681607,-74.33,40.82,-300,Eastern Standard Time,GMT-05:00 America/New_York,12/8/2013 17:41,2/3/2017 0:00
b5d6baa3-843c-40ac-a29c-7c6bc971e727,1009147,96 Meadow Road,Starbucks,23590-231285,201-939-1613,CO,96 Meadow Road,,,Rutherford,NJ,US,7070,-74.1,40.82,-300,Eastern Standard Time,GMT-05:00 America/New_York,3/10/2015 0:00,2/3/2017 0:00
9964c5f3-2584-4063-b08d-e3afbcadbe7d,12086,Sea Girt,Starbucks,7405-1695,732-282-0940,CO,2150 Highway 35,#E-18,Brook 35 Plaza,Sea Girt,NJ,US,87501001,-74.06,40.14,-300,Eastern Standard Time,GMT-05:00 America/New_York,12/8/2013 17:41,2/3/2017 0:00
d0b91117-bf59-412a-b608-236958d0968a,1009333,NJ Alexander Hamilton Travel Plaza,Starbucks,23708-231485,201-863-3345,LS,"NJ Turnpike, Milemarker 111.6 S",,,Secaucus,NJ,US,7094,-74.06,40.78,-300,Eastern Standard Time,GMT-05:00 America/New_York,12/25/2014 0:00,2/3/2017 0:00
4be8d8cc-2465-4724-957d-ea34b2b3c8df,9452,"Secaucus, Harmon Meadow",Starbucks,10038-95235,201-223-4924,CO,700 Plaza Drive,,The Plaza at the Meadows,Secaucus,NJ,US,70943604,-74.05,40.79,-300,Eastern Standard Time,GMT-05:00 America/New_York,12/8/2013 17:41,2/3/2017 0:00
bac6e127-4afa-448f-bfb9-33b93dd48bde,18217,Sewell Washington Center,Starbucks,9802-97755,856-589-3157,CO,304 Greentree Road,,Washington Center,Sewell,NJ,US,80801866,-75.08,39.75,-300,Eastern Standard Time,GMT-05:00 America/New_York,12/8/2013 17:41,2/3/2017 0:00
cd19440a-dba9-417f-aaba-5adf871ad4e4,10699,Target Mantua T-2384,Starbucks,76991-129487,856-415-2380,LS,675 Woodbury Glassboro Rd,,,Sewell,NJ,US,80803733,-75.13,39.77,-300,Eastern Standard Time,GMT-05:00 America/New_York,12/8/2013 17:41,2/3/2017 0:00
b81b78db-d4b8-43fe-af23-5fe882cddc07,14616,The Mall at Short Hills,Starbucks,10326-100646,973-379-5412,CO,1200 Morris Turnpike,,The Mall at Short Hills,Shorthills,NJ,US,7078,-74.36,40.74,-300,Eastern Standard Time,GMT-05:00 America/New_York,12/8/2013 17:41,2/3/2017 0:00
87bc3888-c87b-4e79-b834-13d09700756e,11597,Shrewsbury,Starbucks,7289-751,732-450-0579,CO,551 Route 35,,The Grove,Shrewsbury,NJ,US,7702,-74.06,40.33,-300,Eastern Standard Time,GMT-05:00 America/New_York,12/8/2013 17:41,2/3/2017 0:00
9696411c-4d63-4188-ac0c-c68012e3d9d5,1005348,"Sicklerville, NJ",Starbucks,19574-199449,8562623128,CO,611 Berlin Cross Keys Rd.,,,Sicklerville,NJ,US,8081,-75.01,39.74,-300,Eastern Standard Time,GMT-05:00 America/New_York,12/8/2013 17:41,2/3/2017 0:00
8a0444ba-3cab-4a73-9c33-f6644907fa57,10154,Target Gloucester T-2181,Starbucks,76670-104493,856-740-2173,LS,1615 Berlin Cross Keys Rd,,,Sicklerville,NJ,US,8081,-74.99,39.75,-300,Eastern Standard Time,GMT-05:00 America/New_York,12/8/2013 17:41,2/3/2017 0:00
e4d8092c-3dfb-41ca-bc5a-f97faf5084d8,7921,Somers Point,Starbucks,9841-98351,6099277819,CO,55 Bethel Road,,Ocean Heights Plaza,Somers Point,NJ,US,82441601,-74.6,39.33,-300,Eastern Standard Time,GMT-05:00 America/New_York,12/8/2013 17:41,2/3/2017 0:00
81d31a72-0331-4638-83d8-c84624c2f837,15084,Somerset,Starbucks,7361-1504,732-748-9181,CO,120 Cedar Grove Lane,,Cedar Grove Shopping Center,Somerset,NJ,US,88736462,-74.52,40.52,-300,Eastern Standard Time,GMT-05:00 America/New_York,12/8/2013 17:41,2/3/2017 0:00
925b03a3-41db-4daf-8953-470cbf4e2bb7,1005867,Somerville Town Ctr.,Starbucks,19505-200105,9085262563,CO,"145 W. Main St, unit A-1",Unit A1,,Somerville,NJ,US,8876,-74.62,40.57,-300,Eastern Standard Time,GMT-05:00 America/New_York,12/8/2013 17:41,2/3/2017 0:00
dcce6d0c-0370-4fb1-8354-95e74bfe6ec7,1008736,"Sayreville, NJ",Starbucks,20213-204164,7327271837,CO,957 Route 9 N,,,South Amboy,NJ,US,8879,-74.3,40.46,-300,Eastern Standard Time,GMT-05:00 America/New_York,9/16/2014 0:00,2/3/2017 0:00
9fe4fad9-9867-4ab5-bbfb-c4d1c5a1c6be,13003,Cheesequake Travel Plaza,Starbucks,75556-49639,732-525-0308,LS,Garden State Parkway Mile Post 124,PO Box 307,,South Amboy,NJ,US,88790307,-74.29,40.47,-300,Eastern Standard Time,GMT-05:00 America/New_York,12/8/2013 17:41,2/3/2017 0:00
882a1c30-856b-484e-8fdd-8869494b2c63,7657,Target South Brunswick NJ T-2256,Starbucks,76790-108083,732-329-5220,LS,4190 Rt 1 N,,,South Brunswick,NJ,US,8852,-74.57,40.38,-300,Eastern Standard Time,GMT-05:00 America/New_York,12/8/2013 17:41,2/3/2017 0:00
081be92e-86fa-4902-be05-bfda679cbb00,16343,South Orange,Starbucks,7291-1086,973-762-1249,CO,11 Sloan Street,,,South Orange,NJ,US,70791713,-74.26,40.75,-300,Eastern Standard Time,GMT-05:00 America/New_York,12/8/2013 17:41,2/3/2017 0:00
753be493-bfeb-4a83-b8d4-1e8d957cb546,7061,Target South Plainfield T-1929,Starbucks,76554-90969,908-754-4202,LS,5000 Hadley Center Dr,,,South Plainfield,NJ,US,70801140,-74.43,40.55,-300,Eastern Standard Time,GMT-05:00 America/New_York,12/8/2013 17:41,2/3/2017 0:00
2296be83-4788-45a4-94ed-324aefd9ce88,13473,Summit,Starbucks,7226-562,(908) 273-3121,CO,2 Beechwood Road,,,Summit,NJ,US,79012511,-74.36,40.72,-300,Eastern Standard Time,GMT-05:00 America/New_York,12/8/2013 17:41,2/3/2017 0:00
4d3483b6-2614-47d1-96da-697fef693ebd,1008886,Jersey Shore Premium Outlets,Starbucks,22879-224644,7325988223,CO,1 Premium Outlet Blvd.,,,Tinton Falls,NJ,US,7753,-74.09,40.22,-300,Eastern Standard Time,GMT-05:00 America/New_York,11/28/2015 0:00,2/3/2017 0:00
c9a953d9-ce69-4c38-a57c-0cb13341e228,10620,Stop & Shop-Toms River #811,Starbucks,70079-107658,732-341-1327,LS,353 Route 37 East,,,Toms River,NJ,US,87535752,-74.16,39.95,-300,Eastern Standard Time,GMT-05:00 America/New_York,12/8/2013 17:41,2/3/2017 0:00
c4df1217-c200-4f49-b510-399c62dc1efe,1008837,Toms River Route 9,Starbucks,21774-214864,7329010231,CO,2360 Lakewood Rd,,,Toms River,NJ,US,8755,-74.22,40.05,-300,Eastern Standard Time,GMT-05:00 America/New_York,7/28/2014 0:00,2/3/2017 0:00
f4a614aa-871c-4b8c-9813-b2ac9b6d6d37,17837,Ocean County Mall,Starbucks,11421-105416,732-505-5346,CO,1201 HOOPER AVE,1072,Ocean County Mall,Toms River,NJ,US,87533330,-74.18,39.98,-300,Eastern Standard Time,GMT-05:00 America/New_York,12/8/2013 17:41,2/3/2017 0:00
5e54e2ae-1743-4282-94b7-aaabccd9557b,16761,Richard Stockton Travel Plaza,Starbucks,75683-94535,,LS,200 Uncle Petes Rd,,,Trenton,NJ,US,86913918,-74.64,40.18,-300,Eastern Standard Time,GMT-05:00 America/New_York,12/8/2013 17:41,2/3/2017 0:00
ad7ab38b-4ba7-4b3c-b77c-2f8d2ccc69f6,11022,Target Turnersville T-1132,Starbucks,76954-129485,(856) 875-0082,LS,4001 Black Horse Pike,,,Turnersville,NJ,US,8012,-75.04,39.73,-300,Eastern Standard Time,GMT-05:00 America/New_York,12/8/2013 17:41,2/3/2017 0:00
72371500-5b17-4187-99fa-7c6a8e70f617,1006682,5340 Route 42 Turnersville,Starbucks,21654-213944,856 2277030,CO,5340 Route 42,,,Turnersville,NJ,US,8012,-75.05,39.76,-300,Eastern Standard Time,GMT-05:00 America/New_York,3/15/2014 0:00,2/3/2017 0:00
bd245d91-7192-4529-a6e8-7a745f575d40,13523,Rt. 22 - Center Island,Starbucks,7483-8050,908-687-7299,CO,2698 Route 22 East,,,Union,NJ,US,7083,-74.31,40.69,-300,Eastern Standard Time,GMT-05:00 America/New_York,12/8/2013 17:41,2/3/2017 0:00
5c0b7730-b174-4480-9d1b-7ac5166e23b4,19127,Kean University-Thompson Library,Starbucks,12457-151964,908-737-4689,LS,1000 Morris Ave,,,Union,NJ,US,70837133,-74.24,40.68,-300,Eastern Standard Time,GMT-05:00 America/New_York,12/8/2013 17:41,2/3/2017 0:00
723eceb0-9649-4667-ba84-999161883f01,7721,Target Union T-2141,Starbucks,76937-97486,(908) 622-9002,LS,2235 Springfield Ave,,,Union,NJ,US,70881100,-74.29,40.72,-300,Eastern Standard Time,GMT-05:00 America/New_York,12/8/2013 17:41,2/3/2017 0:00
81ee1365-0dcd-4d22-93e1-df60632ad5b4,12021,Upper Montclair,Starbucks,858-2049,9736550044,CO,572 Valley Road,,,Upper Montclair,NJ,US,70431805,-74.21,40.84,-300,Eastern Standard Time,GMT-05:00 America/New_York,12/8/2013 17:41,2/3/2017 0:00
fca9b2c4-f3f6-4872-b6a4-9cf7476d1c6e,10591,Acme - Vernon #2820,Starbucks,73921-134615,973-764-5350,LS,530 CR-515,,,Vernon,NJ,US,7462,-74.49,41.19,-300,Eastern Standard Time,GMT-05:00 America/New_York,12/8/2013 17:41,2/3/2017 0:00
99731188-5861-4324-8437-d1427fccf303,16441,Vineland Cumberland Mall,Starbucks,8963-95327,856-765-9804,CO,3849 S. Delsea Road,Space #A0013,Cumberland Mall,Vineland,NJ,US,83607408,-75.04,39.43,-300,Eastern Standard Time,GMT-05:00 America/New_York,12/8/2013 17:41,2/3/2017 0:00
51d5e1e2-bdf6-4d4f-8562-28b560478b39,1007723,"Cedar Hill Shopping Center,Voorhees",Starbucks,18835-99379,6093142220,CO,148 Route 73,,Cedar Hill Shopping Center,Voorhees,NJ,US,8043,-74.93,39.84,-300,Eastern Standard Time,GMT-05:00 America/New_York,8/19/2015 0:00,2/3/2017 0:00
3345686d-6c02-4440-bf68-40b995688b21,1016543,Acme - Wall Township #780,Starbucks,49577-265424,732-282-1630,LS,2007 Route 35,,,Wall Township,NJ,US,7719,-74.06,40.15,-300,Eastern Standard Time,GMT-05:00 America/New_York,12/6/2016 0:00,2/3/2017 0:00
e6ee65ab-0adb-469c-bc33-c97497c0a4a9,13532,Warren,Starbucks,7545-8306,908-668-8028,CO,4 Mount Bethel Rd,,,Warren,NJ,US,7059,-74.49,40.62,-300,Eastern Standard Time,GMT-05:00 America/New_York,12/8/2013 17:41,2/3/2017 0:00
072b49fb-735e-4f7e-bbb3-4aaa10f2c504,1008828,Target Watchung,Starbucks,20967-208927,908-769-8193,LS,1515 US Highway 22,,,Watchung,NJ,US,7069,-74.41,40.64,-300,Eastern Standard Time,GMT-05:00 America/New_York,12/30/2014 0:00,2/3/2017 0:00
f6810866-5eab-41cb-a38e-0f2bb2713360,10767,Paterson-Hamburg Tpke - Wayne,Starbucks,14185-112429,973-720-5812,CO,183 Hamburg Turnpike,,,Wayne,NJ,US,74702114,-74.2,40.94,-300,Eastern Standard Time,GMT-05:00 America/New_York,12/8/2013 17:41,2/3/2017 0:00
ed60d9b7-2477-4fc4-b5e1-32e0a7174434,14660,Wayne Rt. 23,Starbucks,9366-96094,973-696-4629,CO,1606 Route 23 North,,,Wayne,NJ,US,74707523,-74.27,40.95,-300,Eastern Standard Time,GMT-05:00 America/New_York,12/8/2013 17:41,2/3/2017 0:00
505ae065-6518-497d-a543-535367931ddd,14962,Willowbrook Mall Food Court,Starbucks,7451-2504,973-837-0150,CO,1400 Willowbrook Mall,,Willowbrook Mall,Wayne,NJ,US,74706905,-74.26,40.89,-300,Eastern Standard Time,GMT-05:00 America/New_York,12/8/2013 17:41,2/3/2017 0:00
7692e902-5482-40fa-b3da-6d1b22a1b221,1008831,Wayne West Belt Plaza,Starbucks,21295-209404,973-785-0514,CO,57 state route 23,,,Wayne,NJ,US,7470,-74.25,40.89,-300,Eastern Standard Time,GMT-05:00 America/New_York,2/28/2015 0:00,2/3/2017 0:00
0e6716c3-7a7b-4fb1-8c44-e3a6ffb625b4,1013431,Berdan Ave & Hamburg Turnpike,Starbucks,7280-225285,9738726406,CO,1118 Hamburg Turnpike,,,Wayne,NJ,US,7470,-74.24,40.96,-300,Eastern Standard Time,GMT-05:00 America/New_York,10/23/2015 0:00,2/3/2017 0:00
3491e690-be2a-4f8a-b538-e746233d1f88,16461,Macy's - Willowbrook,Starbucks,7786-64100,973-890-8931,CO,1100 Willowbrook Blvd,,Willowbrook Mall,Wayne,NJ,US,7470,-74.26,40.89,-300,Eastern Standard Time,GMT-05:00 America/New_York,12/8/2013 17:41,2/3/2017 0:00
a93c6047-2663-4438-bc16-d3e468ccd34e,16217,West Caldwell,Starbucks,7320-1267,973-808-1849,CO,546 Passaic Ave.,,,West Caldwell,NJ,US,70067449,-74.3,40.85,-300,Eastern Standard Time,GMT-05:00 America/New_York,12/8/2013 17:41,2/3/2017 0:00
55913713-d593-4544-be81-b04b825ffd7b,10233,West New York,Starbucks,8126-93459,201 867-0925,CO,55-1 Riverwalk Place,,,West New York,NJ,US,70937831,-74.01,40.78,-300,Eastern Standard Time,GMT-05:00 America/New_York,12/8/2013 17:41,2/3/2017 0:00
0d8ea670-13cb-4d79-866e-aa952644d8c8,18392,Westfield,Starbucks,882-5683,908-789-8424,CO,117 Central Avenue,,,Westfield,NJ,US,70902149,-74.35,40.65,-300,Eastern Standard Time,GMT-05:00 America/New_York,12/8/2013 17:41,2/3/2017 0:00
2b34afe7-2eb8-4db1-a6bd-c9624576deb3,10232,Westwood Avenue,Starbucks,11273-103984,201 358-0487,CO,102 Westwood Avenue,104,Meisel Building,Westwood,NJ,US,76751708,-74.03,40.99,-300,Eastern Standard Time,GMT-05:00 America/New_York,12/8/2013 17:41,2/3/2017 0:00
4f557127-b450-4226-b893-89df77064e19,10659,Whitehouse Station,Starbucks,14478-121564,(908) 534-1159,CO,531 Route 22 East #8,,,Whitehouse Station,NJ,US,8889,-74.76,40.62,-300,Eastern Standard Time,GMT-05:00 America/New_York,12/8/2013 17:41,2/3/2017 0:00
bc5caeda-e202-47ee-8955-df241a1e7c98,8734,Woodbridge Mall,Starbucks,7472-5990,732-602-6200,CO,250 Woodbridge Center Drive,,Woodbridge Center,Woodbridge,NJ,US,70951311,-74.3,40.56,-300,Eastern Standard Time,GMT-05:00 America/New_York,12/8/2013 17:41,2/3/2017 0:00
c79f4063-4655-4b36-b083-e62a5e2841d2,13829,Thomas Edison Travel Plza,Starbucks,75682-94534,,LS,"New Jersey Turnpike, Mile Post 92.9 S",,,Woodbridge,NJ,US,7095,-74.27,40.56,-300,Eastern Standard Time,GMT-05:00 America/New_York,12/8/2013 17:41,2/3/2017 0:00
901176ca-81e9-4716-9748-9c5741b02d03,19109,Acme - Woodcliff Lake #1069,Starbucks,73859-93631,201-476-9800,LS,520 Chestnut Ridge Rd,,,Woodcliff Lake,NJ,US,76778407,-74.07,41.04,-300,Eastern Standard Time,GMT-05:00 America/New_York,12/8/2013 17:41,2/3/2017 0:00
27254b83-f870-44fc-bc07-5c656efe4c60,16757,Wyckoff,Starbucks,7445-2506,201-847-8080,CO,325 Franklin Avenue,,,Wyckoff,NJ,US,74812035,-74.17,41.01,-300,Eastern Standard Time,GMT-05:00 America/New_York,12/8/2013 17:41,2/3/2017 0:00
34c91fe5-bc1b-4396-bae0-f59ce0d9fb2c,13185,Woodrow Wilson Travel Plaza - N6,Starbucks,72452-11619,609-585-1222,LS,"Mile post 57.8-North, NJ Turnpike",,,Yardville,NJ,US,8620,-74.63,40.18,-300,Eastern Standard Time,GMT-05:00 America/New_York,12/8/2013 17:41,2/3/2017 0:00
